*******************************************************************************
JPL/HORIZONS                 3654 AAS (1949 QH1)           2023-Sep-04 11:24:47
Rec #:    3654 (+COV) Soln.date: 2023-Aug-23_12:24:23   # obs: 6470 (1939-2023)
 
IAU76/J2000 helio. ecliptic osc. elements (au, days, deg., period=Julian yrs):
 
  EPOCH=  2457630.5 ! 2016-Aug-30.00 (TDB)         Residual RMS= .27116
   EC= .2013103092171865   QR= 1.806746257037456   TP= 2458133.8751273584
   OM= 200.8727673361945   W=  182.6456096058688   IN= 2.109081013650076
   A= 2.262137946549208    MA= 214.1799647161438   ADIST= 2.717529636060961
   PER= 3.40241            N= .289684626           ANGMOM= .025342977
   DAN= 2.7168             DDN= 1.80707            L= 23.5165873
   B= -.0973294            MOID= .80922699         TP= 2018-Jan-15.3751273584
 
Asteroid physical parameters (km, seconds, rotational period in hours):
   GM= n.a.                RAD= 2.14               ROTPER= n.a.
   H= 14.18                G= .150                 B-V= n.a.
                           ALBEDO= .266            STYP= Sq

ASTEROID comments: 
1: soln ref.= JPL#46, OCC=0
2: source=ORB
*******************************************************************************


*******************************************************************************
Ephemeris / API_USER Mon Sep  4 11:24:47 2023 Pasadena, USA      / Horizons
*******************************************************************************
Target body name: 3654 AAS (1949 QH1)             {source: JPL#46}
Center body name: Solar System Barycenter (0)     {source: DE441}
Center-site name: BODY CENTER
*******************************************************************************
Start time      : A.D. 2023-Aug-12 00:00:00.0000 TDB
Stop  time      : A.D. 2023-Aug-13 00:00:00.0000 TDB
Step-size       : 2880 minutes
*******************************************************************************
Center geodetic : 0.0, 0.0, 0.0                   {E-lon(deg),Lat(deg),Alt(km)}
Center cylindric: 0.0, 0.0, 0.0                   {E-lon(deg),Dxy(km),Dz(km)}
Center radii    : (undefined)
Small perturbers: Yes                             {source: SB441-N16}
Output units    : KM-S
Calendar mode   : Mixed Julian/Gregorian
Output type     : GEOMETRIC cartesian states
Output format   : 2 (position and velocity)
Reference frame : Ecliptic of J2000.0
*******************************************************************************
Initial IAU76/J2000 heliocentric ecliptic osculating elements (au, days, deg.):
  EPOCH=  2457630.5 ! 2016-Aug-30.00 (TDB)         Residual RMS= .27116        
   EC= .2013103092171865   QR= 1.806746257037456   TP= 2458133.8751273584      
   OM= 200.8727673361945   W=  182.6456096058688   IN= 2.109081013650076       
  Equivalent ICRF heliocentric cartesian coordinates (au, au/d):
   X=-1.814179368330566E+00  Y=-1.803786511119977E+00  Z=-7.349492512348588E-01
  VX= 7.605412320682240E-03 VY=-5.437215785646302E-03 VZ=-2.031155754969230E-03
Asteroid physical parameters (km, seconds, rotational period in hours):        
   GM= n.a.                RAD= 2.14               ROTPER= n.a.                
   H= 14.18                G= .150                 B-V= n.a.                   
                           ALBEDO= .266            STYP= Sq                    
*******************************************************************************
JDTDB
   X     Y     Z
   VX    VY    VZ
*******************************************************************************
$$SOE
2460168.500000000 = A.D. 2023-Aug-12 00:00:00.0000 TDB 
 X =-2.077876662375726E+08 Y =-3.300842836020651E+08 Z = 8.689991601728827E+06
 VX= 1.552427060771463E+01 VY=-7.003312485304261E+00 VZ= 4.435885523756657E-01
$$EOE
*******************************************************************************
 
TIME

  Barycentric Dynamical Time ("TDB" or T_eph) output was requested. This
continuous coordinate time is equivalent to the relativistic proper time
of a clock at rest in a reference frame co-moving with the solar system
barycenter but outside the system's gravity well. It is the independent
variable in the solar system relativistic equations of motion.

  TDB runs at a uniform rate of one SI second per second and is independent
of irregularities in Earth's rotation.
 
CALENDAR SYSTEM

  Mixed calendar mode was active such that calendar dates after AD 1582-Oct-15
(if any) are in the modern Gregorian system. Dates prior to 1582-Oct-5 (if any)
are in the Julian calendar system, which is automatically extended for dates
prior to its adoption on 45-Jan-1 BC.  The Julian calendar is useful for
matching historical dates. The Gregorian calendar more accurately corresponds
to the Earth's orbital motion and seasons. A "Gregorian-only" calendar mode is
available if such physical events are the primary interest.

REFERENCE FRAME AND COORDINATES

  Ecliptic at the standard reference epoch

    Reference epoch: J2000.0
    X-Y plane: adopted Earth orbital plane at the reference epoch
               Note: IAU76 obliquity of 84381.448 arcseconds wrt ICRF X-Y plane
    X-axis   : ICRF
    Z-axis   : perpendicular to the X-Y plane in the directional (+ or -) sense
               of Earth's north pole at the reference epoch.

  Symbol meaning:

    JDTDB    Julian Day Number, Barycentric Dynamical Time
      X      X-component of position vector (km)
      Y      Y-component of position vector (km)
      Z      Z-component of position vector (km)
      VX     X-component of velocity vector (km/sec)                           
      VY     Y-component of velocity vector (km/sec)                           
      VZ     Z-component of velocity vector (km/sec)                           

ABERRATIONS AND CORRECTIONS

 Geometric state vectors have NO corrections or aberrations applied.

Computations by ...

    Solar System Dynamics Group, Horizons On-Line Ephemeris System
    4800 Oak Grove Drive, Jet Propulsion Laboratory
    Pasadena, CA  91109   USA

    General site: https://ssd.jpl.nasa.gov/
    Mailing list: https://ssd.jpl.nasa.gov/email_list.html
    System news : https://ssd.jpl.nasa.gov/horizons/news.html
    User Guide  : https://ssd.jpl.nasa.gov/horizons/manual.html
    Connect     : browser        https://ssd.jpl.nasa.gov/horizons/app.html#/x
                  API            https://ssd-api.jpl.nasa.gov/doc/horizons.html
                  command-line   telnet ssd.jpl.nasa.gov 6775
                  e-mail/batch   https://ssd.jpl.nasa.gov/ftp/ssd/hrzn_batch.txt
                  scripts        https://ssd.jpl.nasa.gov/ftp/ssd/SCRIPTS
    Author      : Jon.D.Giorgini@jpl.nasa.gov
*******************************************************************************
